ONEWEB-0641             
1 55805U 23029K   23299.56175257  .00000074  00000+0  15259-3 0  9997
2 55805  87.9125 136.9805 0001531  69.9860 290.1438 13.19725962 31687
ONEWEB-0642             
1 55806U 23029L   23299.63282657 -.00004164  00000+0 -10435-1 0  9994
2 55806  87.9191 136.9537 0002236  45.5820 314.5495 13.19745041 32373
ONEWEB-0643             
1 55807U 23029M   23299.80919526 -.00001517  00000+0 -41254-2 0  9999
2 55807  87.8954 121.6946 0000904  48.4066 311.7141 13.14511255 33404
ONEWEB-0644             
1 55808U 23029N   23299.62809116  .00000074  00000+0  15246-3 0  9991
2 55808  87.9118 136.9522 0001422  55.3057 304.8210 13.19727311 32372
ONEWEB-0645             
1 55809U 23029P   23299.62415618  .00000029  00000+0  41121-4 0  9994
2 55809  87.9188 136.9512 0001867  62.2277 297.9045 13.19724378 32371
ONEWEB-0646             
1 55810U 23029Q   23299.57833657  .00000149  00000+0  34103-3 0  9991
2 55810  87.9192 136.9637 0001403  72.5680 287.5606 13.19726961 31663
ONEWEB-0648             
1 55811U 23029R   23299.54548839 -.00000208  00000+0 -60057-3 0  9999
2 55811  87.8952 121.7135 0001880  45.2534 314.8749 13.13878209 32666
ONEWEB-0649             
1 55812U 23029S   23299.54122105 -.00000008  00000+0 -51627-4 0  9996
2 55812  87.9193 136.9713 0001684  61.4368 298.6934 13.19726030 31699
